{
  "type": "FeatureCollection",
  "features": [
    {
      "type": "Feature",
      "properties": {
        "norad_id": 35443,
        "name": "COSMOS 2251 DEB",
        "group": "cosmos-2251-debris",
        "lat": 27.747853986013812,
        "lon": -27.09024227404354,
        "alt_km": 562.0453728360744,
        "timestamp": "2025-12-16T08:59:43.557713+00:00",
        "meta_object_name": "COSMOS 2251 DEB",
        "meta_object_id": "1993-036AKM",
        "meta_epoch": "2025-12-15T08:48:26.743680",
        "meta_mean_motion": 14.96932548,
        "meta_eccentricity": 0.00731181,
        "meta_inclination": 73.9871,
        "meta_ra_of_asc_node": 326.2641,
        "meta_arg_of_pericenter": 107.3149,
        "meta_mean_anomaly": 253.6052,
        "meta_ephemeris_type": 0,
        "meta_classification_type": "U",
        "meta_norad_cat_id": 35443,
        "meta_element_set_no": 999,
        "meta_rev_at_epoch": 86917,
        "meta_bstar": 0.0020713088,
        "meta_mean_motion_dot": 0.00025182,
        "meta_mean_motion_ddot": 0,
        "tle_line1": "1 35443U 93036AKM 25349.36697620  .00025182  00000+0  20713-2 0  9994",
        "tle_line2": "2 35443  73.9871 326.2641 0073118 107.3149 253.6052 14.96932548869170"
      },
      "geometry": {
        "type": "Point",
        "coordinates": [
          -27.09024227404354,
          27.747853986013812
        ]
      }
    },
    {
      "type": "Feature",
      "properties": {
        "norad_id": 35445,
        "name": "COSMOS 2251 DEB",
        "group": "cosmos-2251-debris",
        "lat": -64.80208459459416,
        "lon": -104.39481274832788,
        "alt_km": 699.9926995676524,
        "timestamp": "2025-12-16T08:59:43.557722+00:00",
        "meta_object_name": "COSMOS 2251 DEB",
        "meta_object_id": "1993-036AKP",
        "meta_epoch": "2025-12-15T21:47:39.126336",
        "meta_mean_motion": 14.59222686,
        "meta_eccentricity": 0.01438348,
        "meta_inclination": 74.0368,
        "meta_ra_of_asc_node": 293.9647,
        "meta_arg_of_pericenter": 20.1975,
        "meta_mean_anomaly": 340.4799,
        "meta_ephemeris_type": 0,
        "meta_classification_type": "U",
        "meta_norad_cat_id": 35445,
        "meta_element_set_no": 999,
        "meta_rev_at_epoch": 87375,
        "meta_bstar": 0.0015699344,
        "meta_mean_motion_dot": 8.537e-05,
        "meta_mean_motion_ddot": 0,
        "tle_line1": "1 35445U 93036AKP 25349.90809174  .00008537  00000+0  15699-2 0  9997",
        "tle_line2": "2 35445  74.0368 293.9647 0143834  20.1975 340.4799 14.59222686873759"
      },
      "geometry": {
        "type": "Point",
        "coordinates": [
          -104.39481274832788,
          -64.80208459459416
        ]
      }
    },
    {
      "type": "Feature",
      "properties": {
        "norad_id": 35446,
        "name": "COSMOS 2251 DEB",
        "group": "cosmos-2251-debris",
        "lat": -73.87809661792518,
        "lon": -146.95804792899278,
        "alt_km": 767.3096416800672,
        "timestamp": "2025-12-16T08:59:43.557733+00:00",
        "meta_object_name": "COSMOS 2251 DEB",
        "meta_object_id": "1993-036AKQ",
        "meta_epoch": "2025-12-15T15:15:54.535104",
        "meta_mean_motion": 14.54632134,
        "meta_eccentricity": 0.00744411,
        "meta_inclination": 74.047,
        "meta_ra_of_asc_node": 312.705,
        "meta_arg_of_pericenter": 70.0614,
        "meta_mean_anomaly": 290.8548,
        "meta_ephemeris_type": 0,
        "meta_classification_type": "U",
        "meta_norad_cat_id": 35446,
        "meta_element_set_no": 999,
        "meta_rev_at_epoch": 88050,
        "meta_bstar": 0.00011676696,
        "meta_mean_motion_dot": 4.88e-06,
        "meta_mean_motion_ddot": 0,
        "tle_line1": "1 35446U 93036AKQ 25349.63604786  .00000488  00000+0  11677-3 0  9990",
        "tle_line2": "2 35446  74.0470 312.7050 0074441  70.0614 290.8548 14.54632134880502"
      },
      "geometry": {
        "type": "Point",
        "coordinates": [
          -146.95804792899278,
          -73.87809661792518
        ]
      }
    },
    {
      "type": "Feature",
      "properties": {
        "norad_id": 35448,
        "name": "COSMOS 2251 DEB",
        "group": "cosmos-2251-debris",
        "lat": 54.28007984789866,
        "lon": -121.08958971861412,
        "alt_km": 712.8726978449849,
        "timestamp": "2025-12-16T08:59:43.557744+00:00",
        "meta_object_name": "COSMOS 2251 DEB",
        "meta_object_id": "1993-036AKS",
        "meta_epoch": "2025-12-14T16:48:40.813632",
        "meta_mean_motion": 14.54286955,
        "meta_eccentricity": 0.00119673,
        "meta_inclination": 73.9048,
        "meta_ra_of_asc_node": 85.7736,
        "meta_arg_of_pericenter": 268.2948,
        "meta_mean_anomaly": 91.6843,
        "meta_ephemeris_type": 0,
        "meta_classification_type": "U",
        "meta_norad_cat_id": 35448,
        "meta_element_set_no": 999,
        "meta_rev_at_epoch": 87363,
        "meta_bstar": 0.00094048305,
        "meta_mean_motion_dot": 3.966e-05,
        "meta_mean_motion_ddot": 0,
        "tle_line1": "1 35448U 93036AKS 25348.70047238  .00003966  00000+0  94048-3 0  9999",
        "tle_line2": "2 35448  73.9048  85.7736 0011967 268.2948  91.6843 14.54286955873633"
      },
      "geometry": {
        "type": "Point",
        "coordinates": [
          -121.08958971861412,
          54.28007984789866
        ]
      }
    },
    {
      "type": "Feature",
      "properties": {
        "norad_id": 35451,
        "name": "COSMOS 2251 DEB",
        "group": "cosmos-2251-debris",
        "lat": 47.302578625504566,
        "lon": -103.38831586085523,
        "alt_km": 477.772386608317,
        "timestamp": "2025-12-16T08:59:43.557754+00:00",
        "meta_object_name": "COSMOS 2251 DEB",
        "meta_object_id": "1993-036AKV",
        "meta_epoch": "2025-12-14T17:21:00.017568",
        "meta_mean_motion": 15.35844177,
        "meta_eccentricity": 0.00411257,
        "meta_inclination": 73.9322,
        "meta_ra_of_asc_node": 98.383,
        "meta_arg_of_pericenter": 344.054,
        "meta_mean_anomaly": 15.9367,
        "meta_ephemeris_type": 0,
        "meta_classification_type": "U",
        "meta_norad_cat_id": 35451,
        "meta_element_set_no": 999,
        "meta_rev_at_epoch": 67436,
        "meta_bstar": 0.0011714729,
        "meta_mean_motion_dot": 0.00042215,
        "meta_mean_motion_ddot": 0,
        "tle_line1": "1 35451U 93036AKV 25348.72291687  .00042215  00000+0  11715-2 0  9993",
        "tle_line2": "2 35451  73.9322  98.3830 0041125 344.0540  15.9367 15.35844177674362"
      },
      "geometry": {
        "type": "Point",
        "coordinates": [
          -103.38831586085523,
          47.302578625504566
        ]
      }
    },
    {
      "type": "Feature",
      "properties": {
        "norad_id": 35453,
        "name": "COSMOS 2251 DEB",
        "group": "cosmos-2251-debris",
        "lat": -35.75724953462855,
        "lon": 1.7507622764364,
        "alt_km": 818.9310307027617,
        "timestamp": "2025-12-16T08:59:43.557764+00:00",
        "meta_object_name": "COSMOS 2251 DEB",
        "meta_object_id": "1993-036AKX",
        "meta_epoch": "2025-12-12T10:00:01.192608",
        "meta_mean_motion": 14.37983532,
        "meta_eccentricity": 0.00672601,
        "meta_inclination": 74.0093,
        "meta_ra_of_asc_node": 20.9669,
        "meta_arg_of_pericenter": 155.0047,
        "meta_mean_anomaly": 205.439,
        "meta_ephemeris_type": 0,
        "meta_classification_type": "U",
        "meta_norad_cat_id": 35453,
        "meta_element_set_no": 999,
        "meta_rev_at_epoch": 86214,
        "meta_bstar": 0.0010887113,
        "meta_mean_motion_dot": 3.355e-05,
        "meta_mean_motion_ddot": 0,
        "tle_line1": "1 35453U 93036AKX 25346.41668047  .00003355  00000+0  10887-2 0  9998",
        "tle_line2": "2 35453  74.0093  20.9669 0067260 155.0047 205.4390 14.37983532862149"
      },
      "geometry": {
        "type": "Point",
        "coordinates": [
          1.7507622764364,
          -35.75724953462855
        ]
      }
    },
    {
      "type": "Feature",
      "properties": {
        "norad_id": 35455,
        "name": "COSMOS 2251 DEB",
        "group": "cosmos-2251-debris",
        "lat": -34.63995884686252,
        "lon": -83.43296106158992,
        "alt_km": 704.9191202167813,
        "timestamp": "2025-12-16T08:59:43.557774+00:00",
        "meta_object_name": "COSMOS 2251 DEB",
        "meta_object_id": "1993-036AKZ",
        "meta_epoch": "2025-12-15T06:39:23.942880",
        "meta_mean_motion": 14.49440801,
        "meta_eccentricity": 0.00992528,
        "meta_inclination": 74.0281,
        "meta_ra_of_asc_node": 290.039,
        "meta_arg_of_pericenter": 32.9545,
        "meta_mean_anomaly": 327.7748,
        "meta_ephemeris_type": 0,
        "meta_classification_type": "U",
        "meta_norad_cat_id": 35455,
        "meta_element_set_no": 999,
        "meta_rev_at_epoch": 86580,
        "meta_bstar": 0.0011136115,
        "meta_mean_motion_dot": 4.513e-05,
        "meta_mean_motion_ddot": 0,
        "tle_line1": "1 35455U 93036AKZ 25349.27736045  .00004513  00000+0  11136-2 0  9996",
        "tle_line2": "2 35455  74.0281 290.0390 0099252  32.9545 327.7748 14.49440801865804"
      },
      "geometry": {
        "type": "Point",
        "coordinates": [
          -83.43296106158992,
          -34.63995884686252
        ]
      }
    }
  ]
}